STARLINK-5238           
1 54188U 22141AH  22327.91667824  .00035359  00000+0  25522-3 0  9998
2 54188  53.2154  10.8916 0003431   8.6684  12.5556 15.73202048  1306
STARLINK-5182           
1 54189U 22141AJ  22327.91667824 -.00001692  00000+0 -76058-5 0  9996
2 54189  53.2180  10.9023 0003776   9.3176  10.2316 15.73208262  4498
STARLINK-5281           
1 54190U 22141AK  22327.91667824 -.00044974  00000+0 -31719-3 0  9991
2 54190  53.2172  10.8941 0003148   6.9003  15.5422 15.73231648  1301
STARLINK-4619           
1 54191U 22141AL  22327.91667824  .00064023  00000+0  45723-3 0  9997
2 54191  53.2174  10.8991 0003659  13.7907   6.2350 15.73188007  4495
STARLINK-5268           
1 54192U 22141AM  22327.91667824 -.00049881  00000+0 -35250-3 0  9999
2 54192  53.2180  10.8849 0003511   4.8116  23.0002 15.73228595  1300
STARLINK-5263           
1 54193U 22141AN  22327.91667824 -.00004046  00000+0 -24383-4 0  9990
2 54193  53.2173  10.8922 0003511   6.1238  17.5542 15.73202475  4494
STARLINK-5271           
1 54194U 22141AP  22327.91667824  .00057714  00000+0  41319-3 0  9996
2 54194  53.2181  10.8907 0003469  12.6374  12.1523 15.73173347  1304
STARLINK-5258           
1 54195U 22141AQ  22327.91667824  .00043561  00000+0  31312-3 0  9994
2 54195  53.2181  10.8951 0003137  10.4873  12.5400 15.73201199  1301
STARLINK-5237           
1 54196U 22141AR  22327.91667824 -.00005705  00000+0 -36203-4 0  9990
2 54196  53.2178  10.8877 0003176  13.8861  12.1151 15.73212345  1306
STARLINK-5234           
1 54197U 22141AS  22327.91667824 -.00030276  00000+0 -21175-3 0  9993
2 54197  53.2186  10.8934 0003256   6.1644  18.1568 15.73225751  4499
STARLINK-5246           
1 54198U 22141AT  22327.91667824  .00053237  00000+0  38189-3 0  9997
2 54198  53.2179  10.8862 0002984   9.1557  17.5101 15.73162263  1306
STARLINK-5244           
1 54199U 22141AU  22327.91667824  .00063761  00000+0  45576-3 0  9999
2 54199  53.2182  10.8897 0003495   8.7344  16.7297 15.73169857  4492
STARLINK-5250           
1 54200U 22141AV  22327.91667824  .00017096  00000+0  12589-3 0  9990
2 54200  53.2151  10.8757 0003186   9.4111  18.9674 15.73215564  4493
STARLINK-5199           
1 54201U 22141AW  22327.91667824 -.00052452  00000+0 -37097-3 0  9999
2 54201  53.2174  10.8810 0003328   5.7064  23.2971 15.73232292  1306
STARLINK-5205           
1 54202U 22141AX  22327.91667824  .00079214  00000+0  56448-3 0  9994
2 54202  53.2168  10.8778 0003014   9.5033  20.0044 15.73156464  4498
STARLINK-5247           
1 54203U 22141AY  22327.91667824  .00050495  00000+0  36201-3 0  9990
2 54203  53.2169  10.8829 0003173  10.0246  17.1722 15.73197582  1309
STARLINK-5241           
1 54204U 22141AZ  22327.91667824  .00068270  00000+0  48764-3 0  9998
2 54204  53.2173  10.8747 0003208  12.1956  19.1965 15.73160208  4493
STARLINK-5249           
1 54205U 22141BA  22327.91667824  .00036023  00000+0  25993-3 0  9999
2 54205  53.2171  10.8773 0003176  16.1747  13.9875 15.73201160  4492
STARLINK-5264           
1 54206U 22141BB  22327.91667824 -.00025084  00000+0 -17462-3 0  9999
2 54206  53.2159  10.4442 0002441  16.8803 222.9653 15.73223656  4492
STARLINK-5262           
1 54207U 22141BC  22327.91667824 -.00037895  00000+0 -26632-3 0  9992
2 54207  53.2174  10.8772 0003203  11.0417  19.7292 15.73232903  4491
STARLINK-5255           
1 54208U 22141BD  22327.91667824  .00062471  00000+0  44666-3 0  9996
2 54208  53.2169  10.8727 0003348  10.4497  21.5610 15.73172209  4494
STARLINK-5259           
1 54209U 22141BE  22327.91667824  .00069566  00000+0  49682-3 0  9992
2 54209  53.2167  10.8710 0003546   6.2070  26.4053 15.73155103  1301
SHIYAN 20C (SY-20C)     
1 54214U 22142A   22327.91767544 -.00000136  00000+0  00000+0 0  9995
2 54214  59.9976 277.8232 0010247 300.7345  59.2702 14.27345815  3705
CZ-2D R/B               
1 54215U 22142B   22327.61751130 -.00000138  00000+0  00000+0 0  9999
2 54215  59.9058 277.7908 0024124 222.1111 137.8076 14.33513607  3679
CSS (MENGTIAN)          
1 54216U 22143A   22327.42590808  .00015234  00000+0  19512-3 0  9997
2 54216  41.4782 329.0785 0005651 298.7492 209.6773 15.58842153 89663
2022-145A               
1 54223U 22145A   22326.69936846 -.00000350  00000+0  00000+0 0  9993
2 54223  63.8249  91.1745 6991992 269.8801  27.9000  2.01039559   413
2022-145B               
1 54224U 22145B   22326.24421942  .00000694  00000+0  00000+0 0  9991
2 54224  63.8537  91.0637 6980253 270.0278  95.5388  2.02013460   406
EUTELSAT HOTBIRD 13G    
1 54225U 22146A   22327.28812892  .00000021  00000+0  00000+0 0  9990
2 54225  21.0554 316.0652 7846225 187.6322 309.5168  1.24216844   243
FALCON 9 R/B            
1 54226U 22146B   22327.42063603  .00000023  00000+0  49946-6 0  9996
2 54226  27.4418 316.0497 8081411 186.0452 147.1878  1.30884454   278
MATS                    
1 54227U 22147A   22327.25735614  .00000825  00000+0  85178-4 0  9992
2 54227  97.6525 329.4699 0012269 241.8571 118.1409 14.92724150  2760
ELECTRON KICK STAGE R/B 
1 54228U 22147B   22327.72406562  .00001932  00000+0  19115-3 0  9999
2 54228  97.6515 329.9283 0011872 235.9176 124.0917 14.92959716  2834
2022-148A               
1 54230U 22148A   22327.81101212 -.00000057  00000+0  10000-3 0  9999
2 54230   0.0102 255.7497 0006639 359.8150 262.5781  1.00271174   311
2022-148B               
1 54231U 22148B   22327.61757974  .00103750  45455-6  34371-2 0  9999
2 54231  28.3952 212.1428 7210508 190.3804 136.8910  2.41195176   446
CYGNUS NG-18            
1 54232U 22149A   22327.55855324  .00009693  00000+0  17653-3 0  9998
2 54232  51.6440 267.0794 0007097 105.2162 226.2847 15.50162873369897
JPSS-2                  
1 54234U 22150A   22327.80465434 -.00000477  00000+0 -18765-3 0  9997
2 54234  98.6954 264.0529 0023300 201.8509 158.1851 14.24089401  1904
YUNHAI 3                
1 54235U 22151A   22327.97332126  .00001660  00000+0  92227-3 0  9996
2 54235  98.8081 332.8144 0029816  34.9470 325.3617 14.12250939  1692
CZ-6A R/B               
1 54236U 22151B   22327.92591538  .00000567  00000+0  29783-3 0  9998
2 54236  98.8217 332.9502 0027436 317.1082  42.7974 14.17958608  1682
TIANZHOU-5              
1 54237U 22152A   22327.48742803  .00015238  00000+0  19516-3 0  9998
2 54237  41.4783 328.7050 0005644 299.1985 194.9176 15.58844079 89675
GALAXY 31               
1 54243U 22153A   22327.74886350  .00000155  00000+0  00000+0 0  9997
2 54243   0.0180 237.6089 0009131 112.8197 193.1797  1.00141868   104
GALAXY 32               
1 54244U 22153B   22327.74877633  .00000152  00000+0  00000+0 0  9999
2 54244   0.0431 336.9436 0003410 316.0263 250.3175  1.00301001   113
FALCON 9 R/B            
1 54248U 22153C   22327.08334733  .00004413 -11209-5  40165-3 0  9993
2 54248  24.5357 125.2556 8156320 183.3702 160.8140  1.29439933   122
YAOGAN-34 03            
1 54249U 22154A   22327.80907053 -.00000090  00000+0  00000+0 0  9994
2 54249  63.4098   3.8956 0009274 256.1433 103.8563 13.46763692  1186
CZ-4C R/B               
1 54250U 22154B   22327.81232740 -.00000052  00000+0  48771-4 0  9991
2 54250  63.4134   3.0032 0121905  44.6342 316.4428 13.68843786  1203
2022-155A               
1 54251U 22155A   22327.89110078  .00003385  00000+0  21561-3 0  9998
2 54251  97.5348  72.5341 0013292 261.7232 239.4362 15.09356529  1158
2022-155B               
1 54252U 22155B   22327.89106424  .00003431  00000+0  21854-3 0  9996
2 54252  97.5401  72.5391 0013226 262.2616 238.6553 15.09355088  1155
2022-155C               
1 54253U 22155C   22327.76523604  .00004041  00000+0  25831-3 0  9993
2 54253  97.5372  72.4092 0012683 258.6940 272.6101 15.09121742  1127
2022-155D               
1 54254U 22155D   22327.76106839  .00004038  00000+0  25679-3 0  9997
2 54254  97.5372  72.4073 0013187 262.4208 251.3107 15.09309270  1132
2022-155E               
1 54255U 22155E   22327.95651001  .00003869  00000+0  24591-3 0  9998
2 54255  97.5373  72.5994 0012496 262.0898 234.3424 15.09362124  1163
ORION                   
1 54257U 22156A   22320.38000000 -.00015874  00000+0  00000+0 0  9993
2 54257  30.5280  10.5600 9646414  20.9260   1.0490  0.10079459    30
SLS R/B                 
1 54258U 22156B   22320.38000000 -.00015394  00000+0  00000+0 0  9991
2 54258  30.5010  10.5910 9639665  20.8820   1.0790  0.10372534    41
EUTELSAT 10B            
1 54259U 22157A   22328.04884601 -.00000346  00000+0  00000+0 0  9992
2 54259  22.7507 298.0413 8178711 178.3913  47.9945  1.24988994    15
2022-157B               
1 54260U 22157B   22328.11353924 -.00000347  00000+0  00000+0 0  9992
2 54260  22.7225 298.0606 8172552 178.3823  79.1551  1.25564275    07
NOAA 1 [-]              
1 04793U 70106A   22327.90550475 -.00000020  00000+0  14683-3 0  9995
2 04793 101.5371  27.5760 0031485  12.4791 161.0481 12.54009183377578
NOAA 2 (ITOS-D) [-]     
1 06235U 72082A   22327.80914206 -.00000045  00000+0  94510-5 0  9994
2 06235 101.9725 311.1386 0004099 127.3062 297.1292 12.53154117291935
NOAA 3 [-]              
1 06920U 73086A   22327.84353977 -.00000045  00000+0  75932-5 0  9993
2 06920 102.2270 309.9553 0006744 358.1673  69.4185 12.40350487220552
NOAA 4 [-]              
1 07529U 74089A   22327.78887417 -.00000043  00000+0  18199-4 0  9996
2 07529 101.9341 308.0030 0008898 157.8133 272.9594 12.53162636196503
NOAA 5 [-]              
1 09057U 76077A   22327.78136281 -.00000046  00000+0 -50964-5 0  9990
2 09057 102.1234 294.1948 0009437 205.4490 217.0213 12.37776648 93458
TIROS N [-]             
1 11060U 78096A   22327.76996180  .00000112  00000+0  75042-4 0  9995
2 11060  98.6151  17.1311 0011274  49.2608 310.9545 14.18441254494433
NOAA 6 [-]              
1 11416U 79057A   22327.79127158  .00000189  00000+0  83980-4 0  9996
2 11416  98.6613 338.8879 0010954 143.8483 216.3444 14.33841083264353
